[{"OBJECT_NAME":"GLOBALSTAR M088","OBJECT_ID":"2011-033B","EPOCH":"2026-03-09T17:50:34.708992","MEAN_MOTION":12.62262182,"ECCENTRICITY":7.909e-5,"INCLINATION":52.0198,"RA_OF_ASC_NODE":221.5516,"ARG_OF_PERICENTER":100.6824,"MEAN_ANOMALY":3.6889,"EPHEMERIS_TYPE":0,"CLASSIFICATION_TYPE":"U","NORAD_CAT_ID":37740,"ELEMENT_SET_NO":999,"REV_AT_EPOCH":67593,"BSTAR":9.0018294e-5,"MEAN_MOTION_DOT":-8.8e-7,"MEAN_MOTION_DDOT":0},{"OBJECT_NAME":"DELTA 1 DEB","OBJECT_ID":"1973-086AS","EPOCH":"2026-03-09T09:37:39.212256","MEAN_MOTION":12.58168404,"ECCENTRICITY":0.00494403,"INCLINATION":101.6643,"RA_OF_ASC_NODE":49.3973,"ARG_OF_PERICENTER":37.6671,"MEAN_ANOMALY":118.7339,"EPHEMERIS_TYPE":0,"CLASSIFICATION_TYPE":"U","NORAD_CAT_ID":7050,"ELEMENT_SET_NO":999,"REV_AT_EPOCH":38587,"BSTAR":0.0024269772,"MEAN_MOTION_DOT":3.68e-6,"MEAN_MOTION_DDOT":0}]
